[{"OBJECT_NAME":"YAOGAN-36 01C","OBJECT_ID":"2022-120E","EPOCH":"2026-03-09T15:47:06.888768","MEAN_MOTION":15.34387321,"ECCENTRICITY":0.00035846,"INCLINATION":35.0027,"RA_OF_ASC_NODE":156.6721,"ARG_OF_PERICENTER":325.73,"MEAN_ANOMALY":34.3187,"EPHEMERIS_TYPE":0,"CLASSIFICATION_TYPE":"U","NORAD_CAT_ID":53947,"ELEMENT_SET_NO":999,"REV_AT_EPOCH":19248,"BSTAR":0.00060387288,"MEAN_MOTION_DOT":0.00020669,"MEAN_MOTION_DDOT":0},{"OBJECT_NAME":"NOAA 16 DEB","OBJECT_ID":"2000-055BK","EPOCH":"2026-03-09T02:17:10.174560","MEAN_MOTION":15.30191008,"ECCENTRICITY":0.00052528,"INCLINATION":98.9831,"RA_OF_ASC_NODE":305.6383,"ARG_OF_PERICENTER":26.64,"MEAN_ANOMALY":333.5104,"EPHEMERIS_TYPE":0,"CLASSIFICATION_TYPE":"U","NORAD_CAT_ID":41128,"ELEMENT_SET_NO":999,"REV_AT_EPOCH":53406,"BSTAR":0.017668961,"MEAN_MOTION_DOT":0.00549039,"MEAN_MOTION_DDOT":0}]
